[{"OBJECT_NAME":"STARLINK-5508","OBJECT_ID":"2023-021M","EPOCH":"2026-03-09T16:51:28.909152","MEAN_MOTION":14.98333687,"ECCENTRICITY":0.00033931,"INCLINATION":70.0003,"RA_OF_ASC_NODE":184.4106,"ARG_OF_PERICENTER":268.7257,"MEAN_ANOMALY":91.3513,"EPHEMERIS_TYPE":0,"CLASSIFICATION_TYPE":"U","NORAD_CAT_ID":55639,"ELEMENT_SET_NO":999,"REV_AT_EPOCH":16879,"BSTAR":0.00042167772,"MEAN_MOTION_DOT":4.942e-5,"MEAN_MOTION_DDOT":0},{"OBJECT_NAME":"TITAN 3C TRANSTAGE DEB","OBJECT_ID":"1965-082MY","EPOCH":"2026-03-09T02:07:30.980928","MEAN_MOTION":14.9794194,"ECCENTRICITY":0.0005374,"INCLINATION":32.3706,"RA_OF_ASC_NODE":83.5066,"ARG_OF_PERICENTER":10.5158,"MEAN_ANOMALY":349.5614,"EPHEMERIS_TYPE":0,"CLASSIFICATION_TYPE":"U","NORAD_CAT_ID":3386,"ELEMENT_SET_NO":999,"REV_AT_EPOCH":23080,"BSTAR":0.0004514074,"MEAN_MOTION_DOT":5.483e-5,"MEAN_MOTION_DDOT":0}]
